INNOSAT 3 (RS92S0)      
1 64894U 25155U   26170.58109087  .00032479  00000+0  71272-3 0  9999
2 64894  97.4490 142.1345 0006904 145.3953 214.7745 15.43968872 81333
KNACKSAT-2              
1 67683U 98067XZ  26170.59247606  .00040473  00000+0  49084-3 0  9990
2 67683  51.6307 282.3774 0008934 225.7617 134.2643 15.60167582 20658
